[{"OBJECT_NAME":"STARLINK-3704","OBJECT_ID":"2022-025D","EPOCH":"2026-03-10T00:00:02.999808","MEAN_MOTION":15.08887845,"ECCENTRICITY":8.629e-5,"INCLINATION":53.0636,"RA_OF_ASC_NODE":34.439,"ARG_OF_PERICENTER":119.4207,"MEAN_ANOMALY":219.0687,"EPHEMERIS_TYPE":0,"CLASSIFICATION_TYPE":"U","NORAD_CAT_ID":51959,"ELEMENT_SET_NO":999,"REV_AT_EPOCH":554,"BSTAR":0.08095622,"MEAN_MOTION_DOT":0.0140974,"MEAN_MOTION_DDOT":0},{"OBJECT_NAME":"FLOCK 4G-8","OBJECT_ID":"2025-009E","EPOCH":"2026-03-09T17:22:17.546016","MEAN_MOTION":15.27623414,"ECCENTRICITY":0.00030503,"INCLINATION":97.4045,"RA_OF_ASC_NODE":151.2834,"ARG_OF_PERICENTER":315.2538,"MEAN_ANOMALY":44.8455,"EPHEMERIS_TYPE":0,"CLASSIFICATION_TYPE":"U","NORAD_CAT_ID":62613,"ELEMENT_SET_NO":999,"REV_AT_EPOCH":6372,"BSTAR":0.0005043806,"MEAN_MOTION_DOT":0.00013559,"MEAN_MOTION_DDOT":0}]
